IRIDIUM 150             
1 43257U 18030J   24255.88239769  .00000752  00000+0  26136-3 0  9997
2 43257  86.4025 199.3063 0002078  90.5930 269.5504 14.34214901337959
IRIDIUM 143             
1 43258U 18030K   24255.86336783  .00000359  00000+0  12098-3 0  9995
2 43258  86.4027 199.3814 0002148  90.1253 270.0189 14.34214470337887
IRIDIUM 161             
1 43478U 18047C   24255.77879369  .00001673  00000+0  49161-3 0  9990
2 43478  86.4518 357.3561 0001933  99.4588 260.6831 14.43263936332330
IRIDIUM 152             
1 43479U 18047D   24256.53376738  .00001542  00000+0  54348-3 0  9996
2 43479  86.4025 356.8984 0002291  95.0622 265.0835 14.34218791330381
IRIDIUM 147             
1 43480U 18047E   24255.84243182  .00000122  00000+0  36467-4 0  9993
2 43480  86.4028 357.1813 0002194  89.0038 271.1409 14.34217102330275
IRIDIUM 110             
1 43481U 18047F   24255.77899745  .00001238  00000+0  43514-3 0  9997
2 43481  86.4030 357.2831 0002080  81.8856 278.2576 14.34214806330251
IRIDIUM 162             
1 43482U 18047G   24256.53511698  .00001147  00000+0  33507-3 0  9991
2 43482  86.4551 356.9381 0002025  82.0636 278.0794 14.43268104332436
IRIDIUM 160             
1 43569U 18061A   24255.93414757  .00000751  00000+0  26125-3 0  9992
2 43569  86.3999 325.6125 0002392  88.1277 272.0192 14.34217724321178
